[{"OBJECT_NAME":"ONEWEB-0358","OBJECT_ID":"2021-090F","EPOCH":"2026-03-09T15:15:49.415904","MEAN_MOTION":13.20771163,"ECCENTRICITY":0.0001562,"INCLINATION":87.9169,"RA_OF_ASC_NODE":294.3141,"ARG_OF_PERICENTER":82.8531,"MEAN_ANOMALY":277.278,"EPHEMERIS_TYPE":0,"CLASSIFICATION_TYPE":"U","NORAD_CAT_ID":49284,"ELEMENT_SET_NO":999,"REV_AT_EPOCH":21741,"BSTAR":-0.00047341,"MEAN_MOTION_DOT":-1.79e-6,"MEAN_MOTION_DDOT":0},{"OBJECT_NAME":"SL-14 DEB","OBJECT_ID":"1991-056AZ","EPOCH":"2026-03-09T07:52:17.853888","MEAN_MOTION":13.18825935,"ECCENTRICITY":0.00163947,"INCLINATION":82.5512,"RA_OF_ASC_NODE":204.5375,"ARG_OF_PERICENTER":357.9962,"MEAN_ANOMALY":2.1093,"EPHEMERIS_TYPE":0,"CLASSIFICATION_TYPE":"U","NORAD_CAT_ID":45311,"ELEMENT_SET_NO":999,"REV_AT_EPOCH":29044,"BSTAR":0.00032109184,"MEAN_MOTION_DOT":1.39e-6,"MEAN_MOTION_DDOT":0}]
